1 27424U 02022A   12052.70073224  .00000495  00000-0  11993-3 0  2199
2 27424 098.2231 354.8592 0001316 085.4191 274.7149 14.57106295521407